[{"OBJECT_NAME":"IRIDIUM 149","OBJECT_ID":"2018-030B","EPOCH":"2026-03-09T19:36:11.240064","MEAN_MOTION":14.34219768,"ECCENTRICITY":0.00021302,"INCLINATION":86.4008,"RA_OF_ASC_NODE":331.9304,"ARG_OF_PERICENTER":82.8556,"MEAN_ANOMALY":277.2882,"EPHEMERIS_TYPE":0,"CLASSIFICATION_TYPE":"U","NORAD_CAT_ID":43250,"ELEMENT_SET_NO":999,"REV_AT_EPOCH":41591,"BSTAR":0.00012927416,"MEAN_MOTION_DOT":3.82e-6,"MEAN_MOTION_DDOT":0},{"OBJECT_NAME":"CZ-6A DEB","OBJECT_ID":"2024-140RJ","EPOCH":"2026-03-09T13:07:36.270912","MEAN_MOTION":14.44919722,"ECCENTRICITY":0.00710485,"INCLINATION":88.9215,"RA_OF_ASC_NODE":278.0584,"ARG_OF_PERICENTER":230.5723,"MEAN_ANOMALY":128.9179,"EPHEMERIS_TYPE":0,"CLASSIFICATION_TYPE":"U","NORAD_CAT_ID":61164,"ELEMENT_SET_NO":999,"REV_AT_EPOCH":8154,"BSTAR":0.00020345028,"MEAN_MOTION_DOT":7.46e-6,"MEAN_MOTION_DDOT":0}]
